NORAD_CAT_ID,OBJECT_NAME,OBJECT_TYPE,EPOCH,MEAN_MOTION,ECCENTRICITY,INCLINATION,RA_OF_ASC_NODE,ARG_OF_PERICENTER,MEAN_ANOMALY,BSTAR,MEAN_MOTION_DOT,MEAN_MOTION_DDOT,TLE_LINE0,TLE_LINE1,TLE_LINE2,SEMIMAJOR_AXIS,PERIOD,APOGEE,PERIGEE,DECAYED
52580.0,STARLINK-3919,PAYLOAD,2023-03-02 10:21:27,15.08863165,0.000171,53.215,46.8374,83.9574,276.1613,0.0018726,0.00029659,0.0,0 STARLINK-3919,1 52580U 22051AW  23061.43157007  .00029659  00000-0  18726-2 0  9996,2 52580  53.2150  46.8374 0001710  83.9574 276.1613 15.08863165 44822,6917.81,95.436,540.858,538.492,0.0
52580.0,STARLINK-3919,PAYLOAD,2023-03-03 10:12:12,15.08907979,0.0001727,53.2159,42.3766,90.0543,270.0647,0.0023914,0.00038048,0.0,0 STARLINK-3919,1 52580U 22051AW  23062.42514836  .00038048  00000-0  23914-2 0  9990,2 52580  53.2159  42.3766 0001727  90.0543 270.0647 15.08907979 45047,6917.673,95.433,540.732,538.343,0.0
52580.0,STARLINK-3919,PAYLOAD,2023-03-04 05:16:50,15.08876601,0.0001291,53.2161,38.8079,90.55,269.564,0.0022377,0.00035541,0.0,0 STARLINK-3919,1 52580U 22051AW  23063.22002543  .00035541  00000-0  22377-2 0  9993,2 52580  53.2161  38.8079 0001291  90.5500 269.5640 15.08876601 45167,6917.769,95.435,540.527,538.74,0.0
52580.0,STARLINK-3919,PAYLOAD,2023-03-04 10:02:59,15.08889748,0.0001285,53.2164,37.9175,100.5517,259.562,0.0029116,0.00046419,0.0,0 STARLINK-3919,1 52580U 22051AW  23063.41874105  .00046419  00000-0  29116-2 0  9999,2 52580  53.2164  37.9175 0001285 100.5517 259.5620 15.08889748 45129,6917.728,95.434,540.482,538.704,0.0
52580.0,STARLINK-3919,PAYLOAD,2023-03-04 22:46:05,15.0882805,0.0001652,53.2166,35.5366,95.3734,264.7447,0.0019981,0.00031645,0.0,0 STARLINK-3919,1 52580U 22051AW  23063.94867237  .00031645  00000-0  19981-2 0  9999,2 52580  53.2166  35.5366 0001652  95.3734 264.7447 15.08828050 45277,6917.917,95.438,540.925,538.639,0.0
52580.0,STARLINK-3919,PAYLOAD,2023-03-05 05:07:37,15.08838744,0.0001409,53.2157,34.3486,95.7119,264.4033,0.0016167,0.00025535,0.0,0 STARLINK-3919,1 52580U 22051AW  23064.21363272  .00025535  00000-0  16167-2 0  9994,2 52580  53.2157  34.3486 0001409  95.7119 264.4033 15.08838744 45244,6917.884,95.438,540.724,538.774,0.0
52580.0,STARLINK-3919,PAYLOAD,2023-03-06 04:58:25,15.08858413,0.0001193,53.2161,29.8913,92.1974,267.9155,0.001493,0.00023565,0.0,0 STARLINK-3919,1 52580U 22051AW  23065.20723618  .00023565  00000-0  14930-2 0  9995,2 52580  53.2161  29.8913 0001193  92.1974 267.9155 15.08858413 45465,6917.824,95.436,540.514,538.864,0.0
52580.0,STARLINK-3919,PAYLOAD,2023-03-06 06:33:48,15.0887011,0.0001452,53.2155,29.5902,99.3194,260.7962,0.0023772,0.0003778,0.0,0 STARLINK-3919,1 52580U 22051AW  23065.27347543  .00037780  00000-0  23772-2 0  9999,2 52580  53.2155  29.5902 0001452  99.3194 260.7962 15.08870110 45470,6917.788,95.436,540.658,538.649,0.0
52580.0,STARLINK-3919,PAYLOAD,2023-03-07 06:24:35,15.08854048,0.0001426,53.2157,25.1271,120.8957,239.2176,0.0010739,0.00016851,0.0,0 STARLINK-3919,1 52580U 22051AW  23066.26707757  .00016851  00000-0  10739-2 0  9991,2 52580  53.2157  25.1271 0001426 120.8957 239.2176 15.08854048 45628,6917.837,95.437,540.689,538.716,0.0
52580.0,STARLINK-3919,PAYLOAD,2023-03-07 09:35:21,15.08866295,0.0001473,53.2153,24.5318,132.2408,227.8709,0.0015907,0.00025137,0.0,0 STARLINK-3919,1 52580U 22051AW  23066.39955502  .00025137  00000-0  15907-2 0  9997,2 52580  53.2153  24.5318 0001473 132.2408 227.8709 15.08866295 45643,6917.8,95.436,540.684,538.646,0.0
52580.0,STARLINK-3919,PAYLOAD,2023-03-08 04:39:59,15.08844955,0.0001533,53.2149,20.965,123.1363,236.9777,0.0014375,0.00022667,0.0,0 STARLINK-3919,1 52580U 22051AW  23067.19444156  .00022667  00000-0  14375-2 0  9997,2 52580  53.2149  20.9650 0001533 123.1363 236.9777 15.08844955 45761,6917.865,95.437,540.791,538.67,0.0
52580.0,STARLINK-3919,PAYLOAD,2023-03-09 06:06:08,15.08887473,0.0001354,53.2156,16.205,99.9462,260.1683,0.001513,0.00023905,0.0,0 STARLINK-3919,1 52580U 22051AW  23068.25426500  .00023905  00000-0  15130-2 0  9994,2 52580  53.2156  16.2050 0001354  99.9462 260.1683 15.08887473 45927,6917.735,95.435,540.537,538.664,0.0
52580.0,STARLINK-3919,PAYLOAD,2023-03-10 02:46:09,15.08856124,0.0001374,53.2174,12.3421,115.3238,244.7897,0.0018381,0.00029099,0.0,0 STARLINK-3919,1 52580U 22051AW  23069.11538767  .00029099  00000-0  18381-2 0  9990,2 52580  53.2174  12.3421 0001374 115.3238 244.7897 15.08856124 46051,6917.831,95.437,540.647,538.746,0.0
52580.0,STARLINK-3919,PAYLOAD,2023-03-10 05:56:55,15.08867681,0.0001372,53.2169,11.7471,118.3405,241.7726,0.0020407,0.00032364,0.0,0 STARLINK-3919,1 52580U 22051AW  23069.24786480  .00032364  00000-0  20407-2 0  9992,2 52580  53.2169  11.7471 0001372 118.3405 241.7726 15.08867681 46003,6917.796,95.436,540.61,538.712,0.0
52580.0,STARLINK-3919,PAYLOAD,2023-03-11 05:47:45,15.08824605,0.0001065,53.2177,7.2848,74.4172,285.6937,0.0017682,0.00027953,0.0,0 STARLINK-3919,1 52580U 22051AW  23070.24149312  .00027953  00000-0  17682-2 0  9990,2 52580  53.2177   7.2848 0001065  74.4172 285.6937 15.08824605 46226,6917.927,95.439,540.529,539.056,0.0
52580.0,STARLINK-3919,PAYLOAD,2023-03-11 07:23:08,15.08839131,9.64e-05,53.216,6.9919,85.7102,274.4,0.0024539,0.00038981,0.0,0 STARLINK-3919,1 52580U 22051AW  23070.30773251  .00038981  00000-0  24539-2 0  9994,2 52580  53.2160   6.9919 0000964  85.7102 274.4000 15.08839131 46236,6917.883,95.438,540.415,539.081,0.0
52580.0,STARLINK-3919,PAYLOAD,2023-03-12 05:38:31,15.08870304,0.0001447,53.2169,2.8241,106.0752,254.0399,0.0019808,0.00031403,0.0,0 STARLINK-3919,1 52580U 22051AW  23071.23509134  .00031403  00000-0  19808-2 0  9999,2 52580  53.2169   2.8241 0001447 106.0752 254.0399 15.08870304 46370,6917.788,95.436,540.654,538.652,0.0
52580.0,STARLINK-3919,PAYLOAD,2023-03-12 19:57:00,15.08860722,9.7e-05,53.2161,0.1514,74.5171,285.5928,0.0019439,0.00030802,0.0,0 STARLINK-3919,1 52580U 22051AW  23071.83125242  .00030802  00000-0  19439-2 0  9991,2 52580  53.2161   0.1514 0000970  74.5171 285.5928 15.08860722 46460,6917.817,95.436,540.353,539.011,0.0
52580.0,STARLINK-3919,PAYLOAD,2023-03-13 05:29:18,15.08885658,0.0001257,53.2157,358.3664,91.885,268.2286,0.0020485,0.00032505,0.0,0 STARLINK-3919,1 52580U 22051AW  23072.22868440  .00032505  00000-0  20485-2 0  9994,2 52580  53.2157 358.3664 0001257  91.8850 268.2286 15.08885658 46453,6917.741,95.435,540.475,538.736,0.0
52580.0,STARLINK-3919,PAYLOAD,2023-03-14 05:20:05,15.0884794,0.0001408,53.2163,353.9038,108.9027,251.2118,0.00072678,0.000113,0.0,0 STARLINK-3919,1 52580U 22051AW  23073.22229093  .00011300  00000-0  72678-3 0  9992,2 52580  53.2163 353.9038 0001408 108.9027 251.2118 15.08847940 46672,6917.856,95.437,540.695,538.747,0.0
52580.0,STARLINK-3919,PAYLOAD,2023-03-14 11:41:38,15.0883926,0.0001367,53.2165,352.72,113.2932,246.8204,0.0018106,0.00028645,0.0,0 STARLINK-3919,1 52580U 22051AW  23073.48725191  .00028645  00000-0  18106-2 0  9995,2 52580  53.2165 352.7200 0001367 113.2932 246.8204 15.08839260 46649,6917.883,95.438,540.693,538.802,0.0
52580.0,STARLINK-3919,PAYLOAD,2023-03-15 02:00:06,15.08883219,0.0001506,53.2158,350.0406,97.3057,262.8107,0.0022768,0.00036177,0.0,0 STARLINK-3919,1 52580U 22051AW  23074.08340351  .00036177  00000-0  22768-2 0  9991,2 52580  53.2158 350.0406 0001506  97.3057 262.8107 15.08883219 46806,6917.748,95.435,540.655,538.571,0.0
52580.0,STARLINK-3919,PAYLOAD,2023-03-15 22:40:07,15.08859711,8.19e-05,53.2163,346.1751,92.336,267.7726,0.0019589,0.00031042,0.0,0 STARLINK-3919,1 52580U 22051AW  23074.94452686  .00031042  00000-0  19589-2 0  9994,2 52580  53.2163 346.1751 0000819  92.3360 267.7726 15.08859711 46866,6917.82,95.436,540.252,539.119,0.0
52580.0,STARLINK-3919,PAYLOAD,2023-03-16 05:01:39,15.08868141,0.0001252,53.2152,344.9856,60.6995,299.4122,0.0021619,0.00034313,0.0,0 STARLINK-3919,1 52580U 22051AW  23075.20948561  .00034313  00000-0  21619-2 0  9997,2 52580  53.2152 344.9856 0001252  60.6995 299.4122 15.08868141 46971,6917.794,95.436,540.525,538.793,0.0
52580.0,STARLINK-3919,PAYLOAD,2023-03-16 20:55:32,15.0882292,0.0001551,53.2165,342.0123,61.49,298.6248,0.00081016,0.00012623,0.0,0 STARLINK-3919,1 52580U 22051AW  23075.87190096  .00012623  00000-0  81016-3 0  9990,2 52580  53.2165 342.0123 0001551  61.4900 298.6248 15.08822920 47008,6917.933,95.439,540.871,538.725,0.0
52580.0,STARLINK-3919,PAYLOAD,2023-03-16 22:30:55,15.08824262,0.0001564,53.2167,341.7151,53.8576,306.2561,0.0010402,0.00016298,0.0,0 STARLINK-3919,1 52580U 22051AW  23075.93814228  .00016298  00000-0  10402-2 0  9999,2 52580  53.2167 341.7151 0001564  53.8576 306.2561 15.08824262 47088,6917.928,95.439,540.875,538.712,0.0
52580.0,STARLINK-3919,PAYLOAD,2023-03-17 11:14:00,15.08844498,0.0001596,53.217,339.3361,55.1524,304.9618,0.0013678,0.0002155,0.0,0 STARLINK-3919,1 52580U 22051AW  23076.46806469  .00021550  00000-0  13678-2 0  9991,2 52580  53.2170 339.3361 0001596  55.1524 304.9618 15.08844498 47093,6917.867,95.437,540.836,538.628,0.0
52580.0,STARLINK-3919,PAYLOAD,2023-03-18 03:07:51,15.0887859,0.0001609,53.2164,336.3618,59.1514,300.9636,0.0015827,0.00025017,0.0,0 STARLINK-3919,1 52580U 22051AW  23077.13045448  .00025017  00000-0  15827-2 0  9998,2 52580  53.2164 336.3618 0001609  59.1514 300.9636 15.08878590 47261,6917.762,95.435,540.741,538.514,0.0
52580.0,STARLINK-3919,PAYLOAD,2023-03-18 20:37:05,15.08853596,0.0001324,53.2168,333.0912,69.6959,290.4175,0.0010039,0.00015731,0.0,0 STARLINK-3919,1 52580U 22051AW  23077.85909435  .00015731  00000-0  10039-2 0  9994,2 52580  53.2168 333.0912 0001324  69.6959 290.4175 15.08853596 47371,6917.839,95.437,540.62,538.788,0.0
52580.0,STARLINK-3919,PAYLOAD,2023-03-18 22:12:28,15.08854981,0.0001357,53.2167,332.7939,71.5358,288.5781,0.001132,0.00017781,0.0,0 STARLINK-3919,1 52580U 22051AW  23077.92533366  .00017781  00000-0  11320-2 0  9999,2 52580  53.2167 332.7939 0001357  71.5358 288.5781 15.08854981 47310,6917.835,95.437,540.638,538.761,0.0
